GLOBALSTAR M019         
1 25677U 99019B   25039.83629728  .00000062  00000+0  15816-2 0  9999
2 25677  51.9882  72.4286 0001276  80.5004  90.7393 12.13873092169557
GLOBALSTAR M044         
1 25678U 99019C   25039.63566949 -.00000126  00000+0 -58659-3 0  9999
2 25678  51.9998   8.2651 0006407 150.9810  20.0483 11.90247411155990
GLOBALSTAR M042         
1 25679U 99019D   25039.76026929 -.00000069  00000+0  22207-3 0  9998
2 25679  52.0022  53.5046 0002823  40.0916 130.5193 12.22078001169551
GLOBALSTAR M025         
1 25770U 99031A   25039.92951726 -.00000059  00000+0  25072-3 0  9996
2 25770  51.9816  96.3894 0001007 269.9459 260.9336 11.22558958467309
GLOBALSTAR M049         
1 25771U 99031B   25039.90779679 -.00000091  00000+0 -88329-3 0  9991
2 25771  51.9874 124.7567 0004052 152.3655 207.7357 11.12114805103153
GLOBALSTAR M047         
1 25772U 99031C   25039.92660883 -.00000095  00000+0 -70879-3 0  9995
2 25772  51.9823 133.9379 0016415  45.8126 314.4026 11.31925629456588
GLOBALSTAR M052         
1 25773U 99031D   25039.84517509 -.00000084  00000+0 -61045-3 0  9996
2 25773  51.9830 235.3810 0001946 348.1781  25.1589 11.15057751464193
